NORAD_CAT_ID,OBJECT_NAME,OBJECT_TYPE,EPOCH,MEAN_MOTION,ECCENTRICITY,INCLINATION,RA_OF_ASC_NODE,ARG_OF_PERICENTER,MEAN_ANOMALY,BSTAR,MEAN_MOTION_DOT,MEAN_MOTION_DDOT,TLE_LINE0,TLE_LINE1,TLE_LINE2,SEMIMAJOR_AXIS,PERIOD,APOGEE,PERIGEE,DECAYED
55766.0,STARLINK-5599,PAYLOAD,2024-03-23 11:56:45,14.98328718,0.0002473,70.0022,230.2625,265.8897,94.198,-7.8002e-05,-1.023e-05,0.0,0 STARLINK-5599,1 55766U 23028AB  24083.49775410 -.00001023  00000-0 -78002-4 0  9997,2 55766  70.0022 230.2625 0002473 265.8897  94.1980 14.98328718 59245,6950.197,96.107,573.781,570.343,0.0
55766.0,STARLINK-5599,PAYLOAD,2024-03-23 19:57:25,14.98332136,0.0002618,70.0008,229.4201,264.6939,95.3922,-6.2419e-05,-8.38e-06,0.0,0 STARLINK-5599,1 55766U 23028AB  24083.83155040 -.00000838  00000-0 -62419-4 0  9994,2 55766  70.0008 229.4201 0002618 264.6939  95.3922 14.98332136 59309,6950.186,96.107,573.871,570.232,0.0
55766.0,STARLINK-5599,PAYLOAD,2024-03-24 11:58:44,14.98350665,0.0003084,69.9998,227.7365,269.5103,90.5702,0.00012668,1.42e-05,0.0,0 STARLINK-5599,1 55766U 23028AB  24084.49912850  .00001420  00000-0  12668-3 0  9993,2 55766  69.9998 227.7365 0003084 269.5103  90.5702 14.98350665 59390,6950.129,96.106,574.137,569.851,0.0
55766.0,STARLINK-5599,PAYLOAD,2024-03-24 13:34:52,14.98350169,0.000305,69.9999,227.5681,269.5741,90.5068,0.00013825,1.558e-05,0.0,0 STARLINK-5599,1 55766U 23028AB  24084.56588774  .00001558  00000-0  13825-3 0  9993,2 55766  69.9999 227.5681 0003050 269.5741  90.5068 14.98350169 59418,6950.131,96.106,574.115,569.876,0.0
55766.0,STARLINK-5599,PAYLOAD,2024-03-24 19:59:23,14.98362202,0.0002885,70.0001,226.8949,267.1145,92.9684,0.00026125,3.028e-05,0.0,0 STARLINK-5599,1 55766U 23028AB  24084.83291326  .00003028  00000-0  26125-3 0  9998,2 55766  70.0001 226.8949 0002885 267.1145  92.9684 14.98362202 59445,6950.093,96.105,573.963,569.953,0.0
55766.0,STARLINK-5599,PAYLOAD,2024-03-25 02:23:57,14.98337267,0.000237,70.0029,226.2217,271.3282,88.7605,4.4793e-05,4.42e-06,0.0,0 STARLINK-5599,1 55766U 23028AB  24085.09997371  .00000442  00000-0  44793-4 0  9999,2 55766  70.0029 226.2217 0002370 271.3282  88.7605 14.98337267 59488,6950.17,96.107,573.683,570.388,0.0
55766.0,STARLINK-5599,PAYLOAD,2024-03-25 12:00:48,14.98311738,0.0003005,69.9995,225.211,266.7015,93.38,-0.00021411,-2.646e-05,0.0,0 STARLINK-5599,1 55766U 23028AB  24085.50055615 -.00002646  00000-0 -21411-3 0  9992,2 55766  69.9995 225.2110 0003005 266.7015  93.3800 14.98311738 59547,6950.249,96.108,574.203,570.026,0.0
55766.0,STARLINK-5599,PAYLOAD,2024-03-25 18:25:20,14.98314691,0.0002576,70.0011,224.5395,259.5988,100.4881,-0.00013003,-1.643e-05,0.0,0 STARLINK-5599,1 55766U 23028AB  24085.76759450 -.00001643  00000-0 -13003-3 0  9992,2 55766  70.0011 224.5395 0002576 259.5988 100.4881 14.98314691 59592,6950.24,96.108,573.896,570.315,0.0
55766.0,STARLINK-5599,PAYLOAD,2024-03-26 15:15:05,14.98320998,0.0002619,70.0009,222.3513,259.5548,100.5316,-0.00029031,-3.554e-05,0.0,0 STARLINK-5599,1 55766U 23028AB  24086.63547935 -.00003554  00000-0 -29031-3 0  9993,2 55766  70.0009 222.3513 0002619 259.5548 100.5316 14.98320998 59723,6950.221,96.108,573.906,570.265,0.0
55766.0,STARLINK-5599,PAYLOAD,2024-03-26 18:27:21,14.98322091,0.0002568,70.001,222.0148,259.2322,100.8548,-0.00026549,-3.258e-05,0.0,0 STARLINK-5599,1 55766U 23028AB  24086.76899902 -.00003258  00000-0 -26549-3 0  9993,2 55766  70.0010 222.0148 0002568 259.2322 100.8548 14.98322091 59733,6950.217,96.108,573.867,570.298,0.0
55766.0,STARLINK-5599,PAYLOAD,2024-03-27 02:28:00,14.98338452,0.000298,70.0001,221.1719,265.9018,94.18,-0.00025267,-3.107e-05,0.0,0 STARLINK-5599,1 55766U 23028AB  24087.10278821 -.00003107  00000-0 -25267-3 0  9992,2 55766  70.0001 221.1719 0002980 265.9018  94.1800 14.98338452 59780,6950.167,96.106,574.103,569.961,0.0
55766.0,STARLINK-5599,PAYLOAD,2024-03-27 12:04:48,14.98353333,0.0002636,70.0001,220.1623,268.9686,91.1171,-0.00030926,-3.783e-05,0.0,0 STARLINK-5599,1 55766U 23028AB  24087.50334163 -.00003783  00000-0 -30926-3 0  9996,2 55766  70.0001 220.1623 0002636 268.9686  91.1171 14.98353333 59845,6950.121,96.106,573.818,570.154,0.0
55766.0,STARLINK-5599,PAYLOAD,2024-03-27 15:17:05,14.98328916,0.0003036,70.0001,219.826,265.4642,94.617,0.00025792,2.986e-05,0.0,0 STARLINK-5599,1 55766U 23028AB  24087.63686388  .00002986  00000-0  25792-3 0  9996,2 55766  70.0001 219.8260 0003036 265.4642  94.6170 14.98328916 59875,6950.196,96.107,574.171,569.951,0.0
55766.0,STARLINK-5599,PAYLOAD,2024-03-27 18:29:20,14.98331844,0.0002997,70.0003,219.4896,265.6563,94.4254,0.0002837,3.294e-05,0.0,0 STARLINK-5599,1 55766U 23028AB  24087.77038164  .00003294  00000-0  28370-3 0  9992,2 55766  70.0003 219.4896 0002997 265.6563  94.4254 14.98331844 59883,6950.187,96.107,574.135,569.969,0.0
55766.0,STARLINK-5599,PAYLOAD,2024-03-28 02:30:01,14.98325616,0.0002895,70.001,218.645,261.9056,98.1775,0.00022002,2.533e-05,0.0,0 STARLINK-5599,1 55766U 23028AB  24088.10418754  .00002533  00000-0  22002-3 0  9998,2 55766  70.0010 218.6450 0002895 261.9056  98.1775 14.98325616 59936,6950.206,96.107,574.084,570.059,0.0
55766.0,STARLINK-5599,PAYLOAD,2024-03-28 12:06:50,14.98326217,0.0002755,69.9996,217.6356,262.6727,97.4119,0.0001776,2.027e-05,0.0,0 STARLINK-5599,1 55766U 23028AB  24088.50475020  .00002027  00000-0  17760-3 0  9994,2 55766  69.9996 217.6356 0002755 262.6727  97.4119 14.98326217 60000,6950.205,96.107,573.984,570.155,0.0
55766.0,STARLINK-5599,PAYLOAD,2024-03-28 15:19:06,14.98328731,0.0002815,70.0004,217.3006,269.4038,90.6799,0.00018412,2.104e-05,0.0,0 STARLINK-5599,1 55766U 23028AB  24088.63826907  .00002104  00000-0  18412-3 0  9993,2 55766  70.0004 217.3006 0002815 269.4038  90.6799 14.98328731 60023,6950.197,96.107,574.018,570.105,0.0
55766.0,STARLINK-5599,PAYLOAD,2024-03-29 12:08:51,14.98334227,0.0002846,70.0009,215.1128,270.1353,89.948,-2.8548e-05,-4.34e-06,0.0,0 STARLINK-5599,1 55766U 23028AB  24089.50615025 -.00000434  00000-0 -28548-4 0  9995,2 55766  70.0009 215.1128 0002846 270.1353  89.9480 14.98334227 60140,6950.18,96.107,574.023,570.067,0.0
55766.0,STARLINK-5599,PAYLOAD,2024-03-29 15:21:07,14.98339521,0.0002989,70.0005,214.7764,271.0537,89.0279,-6.2896e-06,-1.68e-06,0.0,0 STARLINK-5599,1 55766U 23028AB  24089.63966559 -.00000168  00000-0 -62896-5 0  9999,2 55766  70.0005 214.7764 0002989 271.0537  89.0279 14.98339521 60171,6950.163,96.106,574.106,569.951,0.0
55766.0,STARLINK-5599,PAYLOAD,2024-03-30 12:10:52,14.98324763,0.0002648,70.0007,212.5884,270.8871,89.1985,-6.8855e-05,-9.14e-06,0.0,0 STARLINK-5599,1 55766U 23028AB  24090.50755504 -.00000914  00000-0 -68855-4 0  9992,2 55766  70.0007 212.5884 0002648 270.8871  89.1985 14.98324763 60292,6950.209,96.107,573.915,570.234,0.0
55766.0,STARLINK-5599,PAYLOAD,2024-03-30 13:47:00,14.98325969,0.0002544,70.001,212.4204,271.0668,89.0199,-0.00014306,-1.799e-05,0.0,0 STARLINK-5599,1 55766U 23028AB  24090.57431616 -.00001799  00000-0 -14306-3 0  9997,2 55766  70.0010 212.4204 0002544 271.0668  89.0199 14.98325969 60311,6950.205,96.107,573.838,570.302,0.0
55766.0,STARLINK-5599,PAYLOAD,2024-03-31 00:59:56,14.98329636,0.0003245,69.9999,211.2407,271.9678,88.1109,-6.6158e-06,-1.72e-06,0.0,0 STARLINK-5599,1 55766U 23028AB  24091.04163009 -.00000172  00000-0 -66158-5 0  9996,2 55766  69.9999 211.2407 0003245 271.9678  88.1109 14.98329636 60377,6950.194,96.107,574.314,569.804,0.0
55766.0,STARLINK-5599,PAYLOAD,2024-03-31 13:49:00,14.98335046,0.0003055,70.0013,209.8961,266.3178,93.7632,0.00010682,1.182e-05,0.0,0 STARLINK-5599,1 55766U 23028AB  24091.57570294  .00001182  00000-0  10682-3 0  9991,2 55766  70.0013 209.8961 0003055 266.3178  93.7632 14.98335046 60451,6950.177,96.107,574.166,569.919,0.0
55766.0,STARLINK-5599,PAYLOAD,2024-03-31 17:01:16,14.98339179,0.0003037,70.0007,209.5589,268.9122,91.1689,0.00013195,1.482e-05,0.0,0 STARLINK-5599,1 55766U 23028AB  24091.70921886  .00001482  00000-0  13195-3 0  9998,2 55766  70.0007 209.5589 0003037 268.9122  91.1689 14.98339179 60482,6950.165,96.106,574.14,569.919,0.0
55766.0,STARLINK-5599,PAYLOAD,2024-04-01 12:14:55,14.98314551,0.0002851,70.0008,207.5393,269.2961,90.7871,-7.0165e-06,-1.77e-06,0.0,0 STARLINK-5599,1 55766U 23028AB  24092.51035893 -.00000177  00000-0 -70165-5 0  9996,2 55766  70.0008 207.5393 0002851 269.2961  90.7871 14.98314551 60599,6950.241,96.108,574.087,570.124,0.0
55766.0,STARLINK-5599,PAYLOAD,2024-04-01 13:51:02,14.98317858,0.0002731,70.0015,207.3722,266.8409,93.2438,4.3182e-05,4.22e-06,0.0,0 STARLINK-5599,1 55766U 23028AB  24092.57711613  .00000422  00000-0  43182-4 0  9992,2 55766  70.0015 207.3722 0002731 266.8409  93.2438 14.98317858 60611,6950.23,96.108,573.994,570.197,0.0
55766.0,STARLINK-5599,PAYLOAD,2024-04-02 12:16:55,14.98329567,0.0002811,70.001,205.0152,269.6802,90.4034,-7.83e-05,-1.027e-05,0.0,0 STARLINK-5599,1 55766U 23028AB  24093.51175338 -.00001027  00000-0 -78300-4 0  9999,2 55766  70.0010 205.0152 0002811 269.6802  90.4034 14.98329567 60740,6950.194,96.107,574.013,570.106,0.0
55766.0,STARLINK-5599,PAYLOAD,2024-04-02 13:53:03,14.98331825,0.0002889,70.0008,204.8463,269.6574,90.4254,-9.0385e-05,-1.171e-05,0.0,0 STARLINK-5599,1 55766U 23028AB  24093.57851212 -.00001171  00000-0 -90385-4 0  9994,2 55766  70.0008 204.8463 0002889 269.6574  90.4254 14.98331825 60766,6950.187,96.107,574.06,570.044,0.0
55766.0,STARLINK-5599,PAYLOAD,2024-04-02 17:05:19,14.98331429,0.0002921,70.0008,204.5096,270.0614,90.021,-9.521e-05,-1.229e-05,0.0,0 STARLINK-5599,1 55766U 23028AB  24093.71203246 -.00001229  00000-0 -95210-4 0  9994,2 55766  70.0008 204.5096 0002921 270.0614  90.0210 14.98331429 60783,6950.188,96.107,574.084,570.023,0.0
55766.0,STARLINK-5599,PAYLOAD,2024-04-03 01:05:59,14.98337217,0.000305,70.0009,203.6679,272.8083,87.2727,-7.1228e-05,-9.43e-06,0.0,0 STARLINK-5599,1 55766U 23028AB  24094.04582738 -.00000943  00000-0 -71228-4 0  9992,2 55766  70.0009 203.6679 0003050 272.8083  87.2727 14.98337217 60822,6950.171,96.107,574.155,569.916,0.0
